NORAD_CAT_ID,OBJECT_NAME,OBJECT_TYPE,EPOCH,MEAN_MOTION,ECCENTRICITY,INCLINATION,RA_OF_ASC_NODE,ARG_OF_PERICENTER,MEAN_ANOMALY,BSTAR,MEAN_MOTION_DOT,MEAN_MOTION_DDOT,TLE_LINE0,TLE_LINE1,TLE_LINE2,SEMIMAJOR_AXIS,PERIOD,APOGEE,PERIGEE,DECAYED
49156.0,STARLINK-3085,PAYLOAD,2022-11-14 18:49:25,14.98320909,0.0003288,69.9997,67.5728,272.5261,87.5522,2.7978e-05,2.41e-06,0.0,0 STARLINK-3085,1 49156U 21082AC  22318.78432287  .00000241  00000-0  27978-4 0  9999,2 49156  69.9997  67.5728 0003288 272.5261  87.5522 14.98320909 66665,6950.221,96.108,574.371,569.8009999999998,0.0
49156.0,STARLINK-3085,PAYLOAD,2022-11-15 12:26:53,14.98328399,0.0003194,69.9999,65.7205,271.8409,88.2384,9.9348e-05,1.093e-05,0.0,0 STARLINK-3085,1 49156U 21082AC  22319.51867882  .00001093  00000-0  99348-4 0  9990,2 49156  69.9999  65.7205 0003194 271.8409  88.2384 14.98328399 66776,6950.198,96.107,574.283,569.8430000000002,0.0
49156.0,STARLINK-3085,PAYLOAD,2022-11-15 14:03:01,14.98329525,0.0003188999999999,69.9999,65.5523,271.9428,88.1366,0.0001504,1.702e-05,0.0,0 STARLINK-3085,1 49156U 21082AC  22319.58543711  .00001702  00000-0  15040-3 0  9992,2 49156  69.9999  65.5523 0003189 271.9428  88.1366 14.98329525 66785,6950.194,96.107,574.276,569.8430000000002,0.0
49156.0,STARLINK-3085,PAYLOAD,2022-11-15 18:51:25,14.98331269,0.0003007,69.9998,65.0474,268.1814,91.9001,0.00020665,2.374e-05,0.0,0 STARLINK-3085,1 49156U 21082AC  22319.78571466  .00002374  00000-0  20665-3 0  9997,2 49156  69.9998  65.0474 0003007 268.1814  91.9001 14.98331269 66810,6950.189,96.107,574.144,569.964,0.0
49156.0,STARLINK-3085,PAYLOAD,2022-11-16 14:05:03,14.98324963,0.0002944,70.0005,63.0275,272.0472,88.035,0.00013484,1.516e-05,0.0,0 STARLINK-3085,1 49156U 21082AC  22320.58684153  .00001516  00000-0  13484-3 0  9993,2 49156  70.0005  63.0275 0002944 272.0472  88.0350 14.98324963 66932,6950.208000000001,96.107,574.12,570.0269999999998,0.0
49156.0,STARLINK-3085,PAYLOAD,2022-11-16 17:17:17,14.98392525,0.0002454,70.0005,62.6906,260.7154,99.3728,-0.0010389,-0.00012487,0.0,0 STARLINK-3085,1 49156U 21082AC  22320.72034275 -.00012487  00000-0 -10389-2 0  9994,2 49156  70.0005  62.6906 0002454 260.7154  99.3728 14.98392525 66950,6950.0,96.103,573.57,570.159,0.0
49156.0,STARLINK-3085,PAYLOAD,2022-11-16 23:41:51,14.98332589,0.0003025,70.0004,62.0176,272.5733,87.5079,0.00015297,1.733e-05,0.0,0 STARLINK-3085,1 49156U 21082AC  22320.98739607  .00001733  00000-0  15297-3 0  9997,2 49156  70.0004  62.0176 0003025 272.5733  87.5079 14.98332589 66997,6950.185,96.107,574.1519999999998,569.947,0.0
49156.0,STARLINK-3085,PAYLOAD,2022-11-17 09:18:39,14.98335791,0.0002811,70.0006,61.0097,272.8588,87.2249,-6.712e-06,-1.73e-06,0.0,0 STARLINK-3085,1 49156U 21082AC  22321.38795815 -.00000173  00000-0 -67120-5 0  9998,2 49156  70.0006  61.0097 0002811 272.8588  87.2249 14.98335791 67055,6950.175,96.107,573.994,570.086,0.0
49156.0,STARLINK-3085,PAYLOAD,2022-11-17 12:30:55,14.98331207,0.0003011,70.0003,60.6713,272.4804,87.601,-1.7087e-05,-2.97e-06,0.0,0 STARLINK-3085,1 49156U 21082AC  22321.52148071 -.00000297  00000-0 -17087-4 0  9993,2 49156  70.0003  60.6713 0003011 272.4804  87.6010 14.98331207 67072,6950.189,96.107,574.1469999999998,569.961,0.0
49156.0,STARLINK-3085,PAYLOAD,2022-11-17 14:07:03,14.98331171,0.0003018,70.0005,60.5045,268.9844,91.097,-2.9041e-05,-4.39e-06,0.0,0 STARLINK-3085,1 49156U 21082AC  22321.58824055 -.00000439  00000-0 -29041-4 0  9993,2 49156  70.0005  60.5045 0003018 268.9844  91.0970 14.98331171 67087,6950.189,96.107,574.1519999999998,569.957,0.0
49156.0,STARLINK-3085,PAYLOAD,2022-11-18 06:08:24,14.98327708,0.000313,70.0004,58.8225,262.497,97.5834,0.00020873,2.398e-05,0.0,0 STARLINK-3085,1 49156U 21082AC  22322.25583522  .00002398  00000-0  20873-3 0  9996,2 49156  70.0004  58.8225 0003130 262.4970  97.5834 14.98327708 67182,6950.2,96.107,574.24,569.89,0.0
49156.0,STARLINK-3085,PAYLOAD,2022-11-18 07:44:32,14.98335711,0.0003008,70.0006,58.6528,267.5249,92.5566,7.6122e-05,8.16e-06,0.0,0 STARLINK-3085,1 49156U 21082AC  22322.32259326  .00000816  00000-0  76122-4 0  9998,2 49156  70.0006  58.6528 0003008 267.5249  92.5566 14.98335711 67198,6950.175,96.107,574.131,569.95,0.0
49156.0,STARLINK-3085,PAYLOAD,2022-11-18 10:56:48,14.98336063,0.0003002,70.0007,58.3161,267.7692,92.3124,7.8314e-05,8.42e-06,0.0,0 STARLINK-3085,1 49156U 21082AC  22322.45611229  .00000842  00000-0  78314-4 0  9990,2 49156  70.0007  58.3161 0003002 267.7692  92.3124 14.98336063 67219,6950.174,96.107,574.126,569.953,0.0
49156.0,STARLINK-3085,PAYLOAD,2022-11-18 23:45:53,14.98329593,0.000312,70.0004,56.9678,275.5291,84.5512,-3.0098e-05,-4.52e-06,0.0,0 STARLINK-3085,1 49156U 21082AC  22322.99019978 -.00000452  00000-0 -30098-4 0  9998,2 49156  70.0004  56.9678 0003120 275.5291  84.5512 14.98329593 67298,6950.194,96.107,574.2280000000002,569.891,0.0
49156.0,STARLINK-3085,PAYLOAD,2022-11-19 06:10:25,14.98328591,0.0003301,69.9998,56.2942,272.282,87.7961,3.5763e-05,3.34e-06,0.0,0 STARLINK-3085,1 49156U 21082AC  22323.25723796  .00000334  00000-0  35763-4 0  9999,2 49156  69.9998  56.2942 0003301 272.2820  87.7961 14.98328591 67332,6950.196999999999,96.107,574.357,569.768,0.0
49156.0,STARLINK-3085,PAYLOAD,2022-11-19 12:34:57,14.98333402,0.0003096,70.0003,55.621,272.9326,87.1479,0.00011377,1.265e-05,0.0,0 STARLINK-3085,1 49156U 21082AC  22323.52427129  .00001265  00000-0  11377-3 0  9998,2 49156  70.0003  55.6210 0003096 272.9326  87.1479 14.98333402 67371,6950.182,96.107,574.1990000000002,569.896,0.0
49156.0,STARLINK-3085,PAYLOAD,2022-11-20 11:00:51,14.98313911,0.0003195,69.9999,53.2642,276.9127,83.1669,-0.00025851,-3.175e-05,0.0,0 STARLINK-3085,1 49156U 21082AC  22324.45893479 -.00003175  00000-0 -25851-3 0  9992,2 49156  69.9999  53.2642 0003195 276.9127  83.1669 14.98313911 67514,6950.243,96.108,574.328,569.887,0.0
49156.0,STARLINK-3085,PAYLOAD,2022-11-20 12:37:00,14.98313581,0.0003135,69.9998,53.0957,276.2535,83.8267,-0.00025913,-3.182e-05,0.0,0 STARLINK-3085,1 49156U 21082AC  22324.52569561 -.00003182  00000-0 -25913-3 0  9999,2 49156  69.9998  53.0957 0003135 276.2535  83.8267 14.98313581 67525,6950.244000000002,96.108,574.288,569.93,0.0
49156.0,STARLINK-3085,PAYLOAD,2022-11-20 17:25:22,14.98332144,0.0003043,69.9999,52.5906,275.4868,84.5944,-5.7724e-05,-7.82e-06,0.0,0 STARLINK-3085,1 49156U 21082AC  22324.72596000 -.00000782  00000-0 -57724-4 0  9998,2 49156  69.9999  52.5906 0003043 275.4868  84.5944 14.98332144 67551,6950.186,96.107,574.1659999999998,569.936,0.0
49156.0,STARLINK-3085,PAYLOAD,2022-11-21 12:38:59,14.98329753,0.0002723999999999,70.0013,50.5712,272.1136,87.9711,6.551300000000001e-05,6.89e-06,0.0,0 STARLINK-3085,1 49156U 21082AC  22325.52707861  .00000689  00000-0  65513-4 0  9995,2 49156  70.0013  50.5712 0002724 272.1136  87.9711 14.98329753 67675,6950.194,96.107,573.952,570.165,0.0
49156.0,STARLINK-3085,PAYLOAD,2022-11-21 17:27:23,14.98340448,0.0002937,70.0002,50.0657,275.2514,84.831,7.9784e-05,8.59e-06,0.0,0 STARLINK-3085,1 49156U 21082AC  22325.72735139  .00000859  00000-0  79784-4 0  9990,2 49156  70.0002  50.0657 0002937 275.2514  84.8310 14.98340448 67705,6950.161,96.106,574.067,569.984,0.0
49156.0,STARLINK-3085,PAYLOAD,2022-11-22 09:28:44,14.98321086,0.0002633,70.0006,48.3823,277.6973,82.3887,0.00024422,2.822e-05,0.0,0 STARLINK-3085,1 49156U 21082AC  22326.39495863  .00002822  00000-0  24422-3 0  9991,2 49156  70.0006  48.3823 0002633 277.6973  82.3887 14.98321086 67802,6950.22,96.108,573.915,570.255,0.0
49156.0,STARLINK-3085,PAYLOAD,2022-11-22 12:41:00,14.98319981,0.0002745,70.0007,48.0462,276.3271,83.7576,0.00022797,2.627e-05,0.0,0 STARLINK-3085,1 49156U 21082AC  22326.52848028  .00002627  00000-0  22797-3 0  9997,2 49156  70.0007  48.0462 0002745 276.3271  83.7576 14.98319981 67823,6950.224,96.108,573.997,570.181,0.0
49156.0,STARLINK-3085,PAYLOAD,2022-11-22 19:05:32,14.98323001,0.0002774,70.0006,47.3729,275.3892,84.6951,0.00023557,2.718e-05,0.0,0 STARLINK-3085,1 49156U 21082AC  22326.79551887  .00002718  00000-0  23557-3 0  9996,2 49156  70.0006  47.3729 0002774 275.3892  84.6951 14.98323001 67869,6950.215,96.107,574.008,570.1519999999998,0.0
49156.0,STARLINK-3085,PAYLOAD,2022-11-23 09:30:45,14.9833214,0.0002747,70.0005,45.8581,275.0396,85.045,-9.8149e-05,-1.264e-05,0.0,0 STARLINK-3085,1 49156U 21082AC  22327.39636114 -.00001264  00000-0 -98149-4 0  9997,2 49156  70.0005  45.8581 0002747 275.0396  85.0450 14.98332140 67956,6950.186,96.107,573.96,570.1419999999998,0.0
49156.0,STARLINK-3085,PAYLOAD,2022-11-23 17:31:25,14.98336809,0.0002667,70.0004,45.0164,273.7997,86.2857,-0.00027722,-3.4e-05,0.0,0 STARLINK-3085,1 49156U 21082AC  22327.73016176 -.00003400  00000-0 -27722-3 0  9997,2 49156  70.0004  45.0164 0002667 273.7997  86.2857 14.98336809 68004,6950.172,96.107,573.89,570.183,0.0
49156.0,STARLINK-3085,PAYLOAD,2022-11-24 11:08:54,14.98332035,0.000315,70.0004,43.1652,275.9644,84.1156,3.2604e-05,2.96e-06,0.0,0 STARLINK-3085,1 49156U 21082AC  22328.46451675  .00000296  00000-0  32604-4 0  9999,2 49156  70.0004  43.1652 0003150 275.9644  84.1156 14.98332035 68114,6950.187,96.107,574.241,569.862,0.0
49156.0,STARLINK-3085,PAYLOAD,2022-11-24 14:21:10,14.98332761,0.0003143,70.0005,42.8286,276.635,83.4451,4.1239e-05,3.99e-06,0.0,0 STARLINK-3085,1 49156U 21082AC  22328.59803598  .00000399  00000-0  41239-4 0  9996,2 49156  70.0005  42.8286 0003143 276.6350  83.4451 14.98332761 68136,6950.184,96.107,574.234,569.865,0.0
49156.0,STARLINK-3085,PAYLOAD,2022-11-25 11:10:55,14.98326617,0.0002913,70.0009,40.6407,273.4341,86.6485,7.9327e-05,8.54e-06,0.0,0 STARLINK-3085,1 49156U 21082AC  22329.46591787  .00000854  00000-0  79327-4 0  9992,2 49156  70.0009  40.6407 0002913 273.4341  86.6485 14.98326617 68269,6950.203,96.107,574.0930000000002,570.044,0.0
